SPAWAR-CAL-O            
1 43766U 18099J   26068.73975788  .00021069  00000+0  69663-3 0  9999
2 43766  97.4452 132.0993 0007239 285.0670  74.9770 15.31356755398280
STARLINK-34902          
1 65326U 25189D   26068.61374989  .00027084  00000+0  92347-3 0  9994
2 65326  53.1578 207.2057 0001031  75.6087 284.5028 15.30191534 31098
